PROBA-1                 
1 26958U 01049B   26155.98948955  .00001188  00000+0  80375-4 0  9994
2 26958  97.9595 164.0968 0055433 162.5093 197.8059 15.07438697341788
CUTE-1 (CO-55)          
1 27844U 03031E   26154.54951729  .00000336  00000+0  16425-3 0  9994
2 27844  98.6736 163.2800 0008690 219.4250 140.6297 14.24327019189732
CUBESAT XI-IV (CO-57)   
1 27848U 03031J   26152.00092913  .00000288  00000+0  14576-3 0  9999
2 27848  98.6768 160.4891 0008288 248.3946 111.6350 14.23611465189071
APRIZESAT 4             
1 35684U 09041D   26155.71471126  .00000905  00000+0  11430-3 0  9993
2 35684  98.1412 230.7866 0043322   3.9288 356.2256 14.83862321909510
APRIZESAT 3             
1 35686U 09041F   26155.05815830  .00001620  00000+0  14392-3 0  9991
2 35686  98.2059 307.6550 0063014 109.9419 250.8603 14.96203769914416
PROBA-2                 
1 36037U 09059B   26155.31065041  .00000233  00000+0  64911-4 0  9993
2 36037  98.2449 338.8422 0012442 325.3575  34.6810 14.54856807879655
APRIZESAT 5             
1 37792U 11044E   26155.03580594  .00001314  00000+0  17278-3 0  9997
2 37792  98.2452  87.7041 0053313  46.1656 314.3944 14.81045424796845
APRIZESAT 6             
1 37793U 11044F   26155.74862656  .00000878  00000+0  13078-3 0  9996
2 37793  98.2372  65.9940 0044214 124.6952 296.7831 14.76897456795317
PROBA-V                 
1 39159U 13021A   26155.46788589  .00000088  00000+0  56508-4 0  9991
2 39159  98.3578 134.7029 0004546 154.6484 205.4920 14.23594218679302
APRIZESAT 7             
1 39416U 13066A   26154.46842510  .00001374  00000+0  14142-3 0  9996
2 39416  97.7702 107.8862 0034277 256.3956 103.3444 14.91532678679184
APRIZESAT 8             
1 39425U 13066K   26155.09268803  .00001269  00000+0  14319-3 0  9992
2 39425  97.8216 102.7439 0045204 330.7670  29.1018 14.87624717677722
BUGSAT-1 (TITA)         
1 40014U 14033E   26155.95355726  .00004728  00000+0  25181-3 0  9991
2 40014  98.0422 247.7885 0027069 220.6222 139.2990 15.15444318653987
SAUDISAT 4              
1 40016U 14033G   26155.81018348  .00000943  00000+0  13064-3 0  9996
2 40016  97.7570 302.3744 0046146 113.0298 247.5790 14.79526950644248
APRIZESAT 9             
1 40018U 14033J   26155.24354805  .00000791  00000+0  12373-3 0  9999
2 40018  97.9046 288.7598 0064910 241.3340 118.1332 14.74197203641653
APRIZESAT 10            
1 40019U 14033K   26155.60960776  .00000521  00000+0  89765-4 0  9991
2 40019  97.9636 282.8507 0077779 314.6728  44.8157 14.70871639640405
TECHDEMOSAT-1 (TDS-1)   
1 40076U 14037H   26154.53647005  .00009479  00000+0  53972-3 0  9997
2 40076  98.3810 145.3987 0005072 327.0999  32.9913 15.13072942646162
TECHNOSAT               
1 42829U 17042E   26155.74901355  .00003302  00000+0  23673-3 0  9993
2 42829  97.4275 313.8827 0018976 132.9648 227.3174 15.04880149484830
FLYING LAPTOP           
1 42831U 17042G   26155.92017758  .00004082  00000+0  32259-3 0  9997
2 42831  97.4642 311.9299 0018780 161.8339 198.3561 15.01062529484618
HAWK-A                  
1 43765U 18099H   26155.94326434  .00007646  00000+0  30903-3 0  9996
2 43765  97.3913 208.3394 0033836 330.9227  29.0125 15.24492192411236
HAWK-B                  
1 43794U 18099AN  26155.68739073  .00007163  00000+0  30636-3 0  9993
2 43794  97.3964 207.5280 0031492 350.4481   9.6152 15.22681021411136
HAWK-C                  
1 43799U 18099AT  26155.68544484  .00008878  00000+0  32112-3 0  9993
2 43799  97.3891 208.9363 0039510 331.7341  28.1754 15.27919172412000
SALSAT                  
1 46495U 20068K   26154.99736177  .00008555  00000+0  30076-3 0  9992
2 46495  97.8850 157.2614 0009364 359.9507   0.1729 15.29597840313346
HAWK-2C                 
1 47502U 21006CT  26155.11094360  .00007282  00000+0  22016-3 0  9992
2 47502  97.2279 199.6826 0005324 237.9944 122.0782 15.34499260297495
HAWK-2A                 
1 47505U 21006CW  26155.63524098  .00007226  00000+0  21833-3 0  9992
2 47505  97.2322 200.8668 0004840 240.2648 119.8114 15.34521413297574
HAWK-2B                 
1 47508U 21006CZ  26155.10976013  .00008251  00000+0  24846-3 0  9991
2 47508  97.2190 198.7043 0005335 239.5367 120.5350 15.34580448297496
HAWK-3B                 
1 48931U 21059BE  26155.05874359  .00044288  00000+0  39341-3 0  9990
2 48931  97.6667 350.5362 0004322  29.2710 330.8792 15.68415327275798
HAWK-3C                 
1 48948U 21059BX  26155.12223833  .00043729  00000+0  38823-3 0  9994
2 48948  97.6787 356.2683 0004779  30.6573 329.4966 15.68429078275804
HAWK-3A                 
1 48957U 21059CG  26155.12213255  .00044906  00000+0  39862-3 0  9993
2 48957  97.6732 353.4842 0004629  31.8552 328.2987 15.68427584275804
HAWK-5C                 
1 52754U 22057Y   26153.85167066  .00020406  00000+0  35454-3 0  9990
2 52754  97.6583 312.6023 0005529 125.0244 235.1527 15.50847845224122
HAWK-5B                 
1 52756U 22057AA  26154.23865968  .00021506  00000+0  37323-3 0  9990
2 52756  97.6591 311.3622 0005999 116.1777 244.0092 15.50865178224188
